{
  "type": "FeatureCollection",
  "features": [
    {
      "type": "Feature",
      "properties": {
        "norad_id": 32376,
        "name": "COSMO-SKYMED 2",
        "group": "resource",
        "lat": -7.173364333393411,
        "lon": -21.388037912815765,
        "alt_km": 626.6635617046641,
        "timestamp": "2025-12-04T03:47:54.210331+00:00",
        "meta_object_name": "COSMO-SKYMED 2",
        "meta_object_id": "2007-059A",
        "meta_epoch": "2025-12-03T12:22:28.460352",
        "meta_mean_motion": 14.82147313,
        "meta_eccentricity": 0.000153,
        "meta_inclination": 97.8806,
        "meta_ra_of_asc_node": 158.9781,
        "meta_arg_of_pericenter": 88.2571,
        "meta_mean_anomaly": 271.8817,
        "meta_ephemeris_type": 0,
        "meta_classification_type": "U",
        "meta_norad_cat_id": 32376,
        "meta_element_set_no": 999,
        "meta_rev_at_epoch": 97301,
        "meta_bstar": 0.00014071,
        "meta_mean_motion_dot": 1.068e-05,
        "meta_mean_motion_ddot": 0,
        "tle_line1": "1 32376U 07059A   25337.51560718  .00001068  00000+0  14071-3 0  9995",
        "tle_line2": "2 32376  97.8806 158.9781 0001530  88.2571 271.8817 14.82147313973018"
      },
      "geometry": {
        "type": "Point",
        "coordinates": [
          -21.388037912815765,
          -7.173364333393411
        ]
      }
    },
    {
      "type": "Feature",
      "properties": {
        "norad_id": 32382,
        "name": "RADARSAT-2",
        "group": "resource",
        "lat": -54.06703478867052,
        "lon": -5.103390244245446,
        "alt_km": 799.3939390063424,
        "timestamp": "2025-12-04T03:47:54.210343+00:00",
        "meta_object_name": "RADARSAT-2",
        "meta_object_id": "2007-061A",
        "meta_epoch": "2025-12-03T12:56:28.902624",
        "meta_mean_motion": 14.29983652,
        "meta_eccentricity": 0.000108,
        "meta_inclination": 98.58,
        "meta_ra_of_asc_node": 342.2631,
        "meta_arg_of_pericenter": 91.0077,
        "meta_mean_anomaly": 269.1229,
        "meta_ephemeris_type": 0,
        "meta_classification_type": "U",
        "meta_norad_cat_id": 32382,
        "meta_element_set_no": 999,
        "meta_rev_at_epoch": 93799,
        "meta_bstar": 6.8955e-05,
        "meta_mean_motion_dot": 1.34e-06,
        "meta_mean_motion_ddot": 0,
        "tle_line1": "1 32382U 07061A   25337.53922341  .00000134  00000+0  68955-4 0  9995",
        "tle_line2": "2 32382  98.5800 342.2631 0001080  91.0077 269.1229 14.29983652937991"
      },
      "geometry": {
        "type": "Point",
        "coordinates": [
          -5.103390244245446,
          -54.06703478867052
        ]
      }
    },
    {
      "type": "Feature",
      "properties": {
        "norad_id": 32783,
        "name": "CARTOSAT-2A",
        "group": "resource",
        "lat": 65.42550614479286,
        "lon": 10.819987050181304,
        "alt_km": 619.2412191433932,
        "timestamp": "2025-12-04T03:47:54.210354+00:00",
        "meta_object_name": "CARTOSAT-2A",
        "meta_object_id": "2008-021A",
        "meta_epoch": "2025-12-03T11:15:39.178080",
        "meta_mean_motion": 14.78908388,
        "meta_eccentricity": 0.001249,
        "meta_inclination": 97.7944,
        "meta_ra_of_asc_node": 27.5819,
        "meta_arg_of_pericenter": 33.5864,
        "meta_mean_anomaly": 326.6137,
        "meta_ephemeris_type": 0,
        "meta_classification_type": "U",
        "meta_norad_cat_id": 32783,
        "meta_element_set_no": 999,
        "meta_rev_at_epoch": 94987,
        "meta_bstar": 0.00019619,
        "meta_mean_motion_dot": 1.397e-05,
        "meta_mean_motion_ddot": 0,
        "tle_line1": "1 32783U 08021A   25337.46920345  .00001397  00000+0  19619-3 0  9995",
        "tle_line2": "2 32783  97.7944  27.5819 0012490  33.5864 326.6137 14.78908388949873"
      },
      "geometry": {
        "type": "Point",
        "coordinates": [
          10.819987050181304,
          65.42550614479286
        ]
      }
    },
    {
      "type": "Feature",
      "properties": {
        "norad_id": 33320,
        "name": "HUANJING 1A (HJ-1A)",
        "group": "resource",
        "lat": 24.584493435647637,
        "lon": 150.34291015397216,
        "alt_km": 619.1817632776283,
        "timestamp": "2025-12-04T03:47:54.210364+00:00",
        "meta_object_name": "HUANJING 1A (HJ-1A)",
        "meta_object_id": "2008-041A",
        "meta_epoch": "2025-12-03T12:31:58.620864",
        "meta_mean_motion": 14.83346429,
        "meta_eccentricity": 0.0020647,
        "meta_inclination": 97.6536,
        "meta_ra_of_asc_node": 326.2063,
        "meta_arg_of_pericenter": 62.9456,
        "meta_mean_anomaly": 297.3863,
        "meta_ephemeris_type": 0,
        "meta_classification_type": "U",
        "meta_norad_cat_id": 33320,
        "meta_element_set_no": 999,
        "meta_rev_at_epoch": 92939,
        "meta_bstar": 0.00026912,
        "meta_mean_motion_dot": 2.162e-05,
        "meta_mean_motion_ddot": 0,
        "tle_line1": "1 33320U 08041A   25337.52220626  .00002162  00000+0  26912-3 0  9992",
        "tle_line2": "2 33320  97.6536 326.2063 0020647  62.9456 297.3863 14.83346429929396"
      },
      "geometry": {
        "type": "Point",
        "coordinates": [
          150.34291015397216,
          24.584493435647637
        ]
      }
    },
    {
      "type": "Feature",
      "properties": {
        "norad_id": 33321,
        "name": "HUANJING 1B (HJ-1B)",
        "group": "resource",
        "lat": 32.67945944323098,
        "lon": -34.40429453044231,
        "alt_km": 609.2715672679615,
        "timestamp": "2025-12-04T03:47:54.210375+00:00",
        "meta_object_name": "HUANJING 1B (HJ-1B)",
        "meta_object_id": "2008-041B",
        "meta_epoch": "2025-12-03T13:04:26.048352",
        "meta_mean_motion": 14.82782056,
        "meta_eccentricity": 0.0038163,
        "meta_inclination": 97.6396,
        "meta_ra_of_asc_node": 329.9488,
        "meta_arg_of_pericenter": 104.8212,
        "meta_mean_anomaly": 255.7234,
        "meta_ephemeris_type": 0,
        "meta_classification_type": "U",
        "meta_norad_cat_id": 33321,
        "meta_element_set_no": 999,
        "meta_rev_at_epoch": 92941,
        "meta_bstar": 0.00021388,
        "meta_mean_motion_dot": 1.699e-05,
        "meta_mean_motion_ddot": 0,
        "tle_line1": "1 33321U 08041B   25337.54474593  .00001699  00000+0  21388-3 0  9995",
        "tle_line2": "2 33321  97.6396 329.9488 0038163 104.8212 255.7234 14.82782056929412"
      },
      "geometry": {
        "type": "Point",
        "coordinates": [
          -34.40429453044231,
          32.67945944323098
        ]
      }
    },
    {
      "type": "Feature",
      "properties": {
        "norad_id": 33331,
        "name": "GEOEYE 1",
        "group": "resource",
        "lat": -34.340717315597814,
        "lon": -136.05624158829363,
        "alt_km": 684.3341845502391,
        "timestamp": "2025-12-04T03:47:54.210385+00:00",
        "meta_object_name": "GEOEYE 1",
        "meta_object_id": "2008-042A",
        "meta_epoch": "2025-12-03T12:03:58.718016",
        "meta_mean_motion": 14.64791688,
        "meta_eccentricity": 0.0002978,
        "meta_inclination": 98.1264,
        "meta_ra_of_asc_node": 48.8985,
        "meta_arg_of_pericenter": 316.8628,
        "meta_mean_anomaly": 43.2342,
        "meta_ephemeris_type": 0,
        "meta_classification_type": "U",
        "meta_norad_cat_id": 33331,
        "meta_element_set_no": 999,
        "meta_rev_at_epoch": 92150,
        "meta_bstar": 0.00019116,
        "meta_mean_motion_dot": 9.72e-06,
        "meta_mean_motion_ddot": 0,
        "tle_line1": "1 33331U 08042A   25337.50276294  .00000972  00000+0  19116-3 0  9990",
        "tle_line2": "2 33331  98.1264  48.8985 0002978 316.8628  43.2342 14.64791688921506"
      },
      "geometry": {
        "type": "Point",
        "coordinates": [
          -136.05624158829363,
          -34.340717315597814
        ]
      }
    },
    {
      "type": "Feature",
      "properties": {
        "norad_id": 33396,
        "name": "THEOS",
        "group": "resource",
        "lat": 10.199898197934772,
        "lon": 34.94251181392866,
        "alt_km": 826.5101004861681,
        "timestamp": "2025-12-04T03:47:54.210396+00:00",
        "meta_object_name": "THEOS",
        "meta_object_id": "2008-049A",
        "meta_epoch": "2025-12-03T12:31:51.866976",
        "meta_mean_motion": 14.20093184,
        "meta_eccentricity": 0.000109,
        "meta_inclination": 98.5881,
        "meta_ra_of_asc_node": 35.8832,
        "meta_arg_of_pericenter": 100.461,
        "meta_mean_anomaly": 259.669,
        "meta_ephemeris_type": 0,
        "meta_classification_type": "U",
        "meta_norad_cat_id": 33396,
        "meta_element_set_no": 999,
        "meta_rev_at_epoch": 89019,
        "meta_bstar": 7.2748e-05,
        "meta_mean_motion_dot": 1.12e-06,
        "meta_mean_motion_ddot": 0,
        "tle_line1": "1 33396U 08049A   25337.52212809  .00000112  00000+0  72748-4 0  9999",
        "tle_line2": "2 33396  98.5881  35.8832 0001090 100.4610 259.6690 14.20093184890192"
      },
      "geometry": {
        "type": "Point",
        "coordinates": [
          34.94251181392866,
          10.199898197934772
        ]
      }
    }
  ]
}